[{"OBJECT_NAME":"JILIN-1 07","OBJECT_ID":"2018-008E","EPOCH":"2026-03-09T22:24:26.445888","MEAN_MOTION":15.32987507,"ECCENTRICITY":0.00101791,"INCLINATION":97.1876,"RA_OF_ASC_NODE":91.5817,"ARG_OF_PERICENTER":62.7832,"MEAN_ANOMALY":297.4447,"EPHEMERIS_TYPE":0,"CLASSIFICATION_TYPE":"U","NORAD_CAT_ID":43159,"ELEMENT_SET_NO":999,"REV_AT_EPOCH":44978,"BSTAR":0.00036439521,"MEAN_MOTION_DOT":0.00011559,"MEAN_MOTION_DDOT":0},{"OBJECT_NAME":"STARLINK-35208","OBJECT_ID":"2025-223A","EPOCH":"2026-03-09T21:51:46.472256","MEAN_MOTION":15.30215673,"ECCENTRICITY":0.00012944,"INCLINATION":53.1569,"RA_OF_ASC_NODE":292.8564,"ARG_OF_PERICENTER":122.1307,"MEAN_ANOMALY":237.982,"EPHEMERIS_TYPE":0,"CLASSIFICATION_TYPE":"U","NORAD_CAT_ID":65854,"ELEMENT_SET_NO":999,"REV_AT_EPOCH":2424,"BSTAR":0.00086554385,"MEAN_MOTION_DOT":0.00025376,"MEAN_MOTION_DDOT":0}]
